STARLINK-33885          
1 63886U 25094Y   25209.80099089  .00022553  00000+0  51643-3 0  9990
2 63886  69.9997  89.5001 0003570 268.9309  91.1464 15.42736601 13393
STARLINK-33904          
1 63887U 25094Z   25210.05620792  .00041149  00000+0  93723-3 0  9998
2 63887  69.9994  88.7838 0003402 271.4961  88.5831 15.42737107 13533
STARLINK-33981          
1 63888U 25094AA  25210.04810460  .00021369  00000+0  48949-3 0  9993
2 63888  70.0002  88.7562 0003180 267.2877  92.7941 15.42743407 13521
STARLINK-33738          
1 63889U 25094AB  25210.03999782  .00037568  00000+0  85624-3 0  9997
2 63889  69.9996  88.7019 0003805 268.3764  91.6982 15.42739171 13503
STARLINK-34116          
1 63890U 25095A   25210.11860954  .00023123  00000+0  84698-3 0  9999
2 63890  43.0004 358.9931 0000667 276.4942  83.5833 15.27587426 13595
STARLINK-34123          
1 63891U 25095B   25210.13274351  .00031760  00000+0  11592-2 0  9990
2 63891  43.0027 359.1026 0001356 259.0164 101.0536 15.27565998 13594
STARLINK-34128          
1 63892U 25095C   25209.71087202  .00023228  00000+0  85077-3 0  9990
2 63892  42.9933   1.0874 0000411 121.8113 238.2778 15.27586899 13532
STARLINK-33972          
1 63893U 25095D   25210.11090730  .00032895  00000+0  11995-2 0  9994
2 63893  43.0002 358.9324 0001692 290.9429  69.1241 15.27581853 13593
STARLINK-33973          
1 63894U 25095E   25210.14030135  .00022862  00000+0  83791-3 0  9998
2 63894  43.0045 358.2869 0002110 256.6924 103.3692 15.27572241 13607
STARLINK-34119          
1 63895U 25095F   25209.73271711  .00014497  00000+0  53544-3 0  9997
2 63895  43.0065   1.2590 0001663 289.4458  70.6214 15.27570538 13540
STARLINK-34143          
1 63896U 25095G   25210.09933683  .00024932  00000+0  91236-3 0  9997
2 63896  42.9998 358.8406 0001725 281.0631  79.0027 15.27584145 13590
STARLINK-33957          
1 63897U 25095H   25210.12889437  .00020985  00000+0  77004-3 0  9990
2 63897  42.9935 359.0730 0000252  13.5160 346.5698 15.27575365 13583
STARLINK-34120          
1 63898U 25095J   25210.13644753  .00025852  00000+0  94533-3 0  9996
2 63898  43.0043 358.2605 0002103 271.1368  88.9243 15.27591379 13606
STARLINK-34134          
1 63899U 25095K   25210.11475590  .00032097  00000+0  11704-2 0  9993
2 63899  42.9987 358.9624 0000866 291.5869  68.4890 15.27591843 13591
STARLINK-34118          
1 63900U 25095L   25210.12117982  .00018288  00000+0  67221-3 0  9997
2 63900  42.9998 359.0112 0000577 290.7720  69.3070 15.27590991 13599
STARLINK-34125          
1 63901U 25095M   25210.10705217  .00027989  00000+0  10230-2 0  9995
2 63901  43.0003 358.9004 0001749 289.6738  70.3925 15.27571799 13580
STARLINK-33955          
1 63902U 25095N   25210.14287140  .00020778  00000+0  76222-3 0  9993
2 63902  43.0038 358.3075 0002529 275.0265  85.0298 15.27589540 13592
STARLINK-34097          
1 63903U 25095P   25209.70444724  .00018033  00000+0  66321-3 0  9997
2 63903  42.9970   1.0317 0000740 268.9285  91.1482 15.27581221 13527
STARLINK-34092          
1 63904U 25095Q   25209.73400201  .00022237  00000+0  81526-3 0  9998
2 63904  42.9982   1.2648 0001188 274.2368  85.8348 15.27575284 13522
STARLINK-34114          
1 63905U 25095R   25209.74171197  .00022163  00000+0  81236-3 0  9995
2 63905  43.0005   1.3241 0000640 257.1069 102.9711 15.27585106 13520
STARLINK-33770          
1 63906U 25095S   25209.75956286  .00026093  00000+0  95352-3 0  9997
2 63906  43.0021   0.5861 0001930 262.5105  97.5527 15.27609139 13530
STARLINK-34106          
1 63907U 25095T   25209.88646683  .00023142  00000+0  84700-3 0  9996
2 63907  43.0054 359.8254 0002834 299.4783  60.5786 15.27611063 13556
STARLINK-34083          
1 63908U 25095U   25210.13017465  .00019315  00000+0  70947-3 0  9992
2 63908  43.0023 359.0779 0001569 276.6825  83.3848 15.27584600 13586
STARLINK-34066          
1 63909U 25095V   25209.46217615  .00015834  00000+0  58382-3 0  9997
2 63909  43.0021   2.6622 0001122 271.0313  89.0410 15.27572994 13489
STARLINK-34071          
1 63910U 25095W   25210.12246182  .00022246  00000+0  81519-3 0  9998
2 63910  43.0027 359.0201 0001284 269.8786  90.1919 15.27591691 13580
STARLINK-34038          
1 63911U 25095X   25210.10832893  .00023990  00000+0  87827-3 0  9992
2 63911  42.9981 358.9060 0001979 286.0068  74.0565 15.27586730 13580
STARLINK-34031          
1 63912U 25095Y   25209.71987170  .00019305  00000+0  70971-3 0  9994
2 63912  43.0036   1.1540 0002814 271.8379  88.2150 15.27555010 13528
STARLINK-34070          
1 63913U 25095Z   25210.10447539  .00025546  00000+0  93454-3 0  9995
2 63913  42.9993 358.8788 0001683 288.6730  71.3939 15.27582425 13589
STARLINK-34068          
1 63914U 25095AA  25209.76726434  .00030083  00000+0  10983-2 0  9997
2 63914  43.0008   0.6422 0001652 283.9224  76.1444 15.27578182 13532
STARLINK-34076          
1 63915U 25095AB  25210.10061412  .00019245  00000+0  70676-3 0  9999
2 63915  42.9991 358.8474 0001631 280.0173  80.0494 15.27593356 13589
