OBJECT_NAME,OBJECT_ID,EPOCH,MEAN_MOTION,ECCENTRICITY,INCLINATION,RA_OF_ASC_NODE,ARG_OF_PERICENTER,MEAN_ANOMALY,EPHEMERIS_TYPE,CLASSIFICATION_TYPE,NORAD_CAT_ID,ELEMENT_SET_NO,REV_AT_EPOCH,BSTAR,MEAN_MOTION_DOT,MEAN_MOTION_DDOT
STARLINK-33885,2025-094Y,2025-07-28T19:13:25.612896,15.42736601,.000357,69.9997,89.5001,268.9309,91.1464,0,U,63886,999,1339,.51643E-3,.22553E-3,0
STARLINK-33904,2025-094Z,2025-07-29T01:20:56.364288,15.42737107,.0003402,69.9994,88.7838,271.4961,88.5831,0,U,63887,999,1353,.93723E-3,.41149E-3,0
STARLINK-33981,2025-094AA,2025-07-29T01:09:16.237440,15.42743407,.000318,70.0002,88.7562,267.2877,92.7941,0,U,63888,999,1352,.48949E-3,.21369E-3,0
STARLINK-33738,2025-094AB,2025-07-29T00:57:35.811648,15.42739171,.0003805,69.9996,88.7019,268.3764,91.6982,0,U,63889,999,1350,.85624E-3,.37568E-3,0
STARLINK-34116,2025-095A,2025-07-29T02:50:47.864256,15.27587426,.0000667,43.0004,358.9931,276.4942,83.5833,0,U,63890,999,1359,.84698E-3,.23123E-3,0
STARLINK-34123,2025-095B,2025-07-29T03:11:09.039264,15.27565998,.0001356,43.0027,359.1026,259.0164,101.0536,0,U,63891,999,1359,.11592E-2,.3176E-3,0
STARLINK-34128,2025-095C,2025-07-28T17:03:39.342528,15.27586899,.0000411,42.9933,1.0874,121.8113,238.2778,0,U,63892,999,1353,.85077E-3,.23228E-3,0
STARLINK-33972,2025-095D,2025-07-29T02:39:42.390720,15.27581853,.0001692,43.0002,358.9324,290.9429,69.1241,0,U,63893,999,1359,.11995E-2,.32895E-3,0
STARLINK-33973,2025-095E,2025-07-29T03:22:02.036640,15.27572241,.000211,43.0045,358.2869,256.6924,103.3692,0,U,63894,999,1360,.83791E-3,.22862E-3,0
STARLINK-34119,2025-095F,2025-07-28T17:35:06.758304,15.27570538,.0001663,43.0065,1.2590,289.4458,70.6214,0,U,63895,999,1354,.53544E-3,.14497E-3,0
STARLINK-34143,2025-095G,2025-07-29T02:23:02.702112,15.27584145,.0001725,42.9998,358.8406,281.0631,79.0027,0,U,63896,999,1359,.91236E-3,.24932E-3,0
STARLINK-33957,2025-095H,2025-07-29T03:05:36.473568,15.27575365,.0000252,42.9935,359.0730,13.5160,346.5698,0,U,63897,999,1358,.77004E-3,.20985E-3,0
STARLINK-34120,2025-095J,2025-07-29T03:16:29.066592,15.27591379,.0002103,43.0043,358.2605,271.1368,88.9243,0,U,63898,999,1360,.94533E-3,.25852E-3,0
STARLINK-34134,2025-095K,2025-07-29T02:45:14.909760,15.27591843,.0000866,42.9987,358.9624,291.5869,68.4890,0,U,63899,999,1359,.11704E-2,.32097E-3,0
STARLINK-34118,2025-095L,2025-07-29T02:54:29.936448,15.27590991,.0000577,42.9998,359.0112,290.7720,69.3070,0,U,63900,999,1359,.67221E-3,.18288E-3,0
STARLINK-34125,2025-095M,2025-07-29T02:34:09.307488,15.27571799,.0001749,43.0003,358.9004,289.6738,70.3925,0,U,63901,999,1358,.1023E-2,.27989E-3,0
STARLINK-33955,2025-095N,2025-07-29T03:25:44.088960,15.27589540,.0002529,43.0038,358.3075,275.0265,85.0298,0,U,63902,999,1359,.76222E-3,.20778E-3,0
STARLINK-34097,2025-095P,2025-07-28T16:54:24.241536,15.27581221,.000074,42.9970,1.0317,268.9285,91.1482,0,U,63903,999,1352,.66321E-3,.18033E-3,0
STARLINK-34092,2025-095Q,2025-07-28T17:36:57.773664,15.27575284,.0001188,42.9982,1.2648,274.2368,85.8348,0,U,63904,999,1352,.81526E-3,.22237E-3,0
STARLINK-34114,2025-095R,2025-07-28T17:48:03.914208,15.27585106,.000064,43.0005,1.3241,257.1069,102.9711,0,U,63905,999,1352,.81236E-3,.22163E-3,0
STARLINK-33770,2025-095S,2025-07-28T18:13:46.231104,15.27609139,.000193,43.0021,0.5861,262.5105,97.5527,0,U,63906,999,1353,.95352E-3,.26093E-3,0
STARLINK-34106,2025-095T,2025-07-28T21:16:30.734112,15.27611063,.0002834,43.0054,359.8254,299.4783,60.5786,0,U,63907,999,1355,.847E-3,.23142E-3,0
STARLINK-34083,2025-095U,2025-07-29T03:07:27.089760,15.27584600,.0001569,43.0023,359.0779,276.6825,83.3848,0,U,63908,999,1358,.70947E-3,.19315E-3,0
STARLINK-34066,2025-095V,2025-07-28T11:05:32.019360,15.27572994,.0001122,43.0021,2.6622,271.0313,89.0410,0,U,63909,999,1348,.58382E-3,.15834E-3,0
STARLINK-34071,2025-095W,2025-07-29T02:56:20.701248,15.27591691,.0001284,43.0027,359.0201,269.8786,90.1919,0,U,63910,999,1358,.81519E-3,.22246E-3,0
STARLINK-34038,2025-095X,2025-07-29T02:35:59.619552,15.27586730,.0001979,42.9981,358.9060,286.0068,74.0565,0,U,63911,999,1358,.87827E-3,.2399E-3,0
STARLINK-34031,2025-095Y,2025-07-28T17:16:36.914880,15.27555010,.0002814,43.0036,1.1540,271.8379,88.2150,0,U,63912,999,1352,.70971E-3,.19305E-3,0
STARLINK-34070,2025-095Z,2025-07-29T02:30:26.673696,15.27582425,.0001683,42.9993,358.8788,288.6730,71.3939,0,U,63913,999,1358,.93454E-3,.25546E-3,0
STARLINK-34068,2025-095AA,2025-07-28T18:24:51.638976,15.27578182,.0001652,43.0008,0.6422,283.9224,76.1444,0,U,63914,999,1353,.10983E-2,.30083E-3,0
STARLINK-34076,2025-095AB,2025-07-29T02:24:53.059968,15.27593356,.0001631,42.9991,358.8474,280.0173,80.0494,0,U,63915,999,1358,.70676E-3,.19245E-3,0
